     2.10           G: GLONASS NAV DATA                     RINEX VERSION / TYPE
teqc  2015Jun23                         20211018 01:25:46UTCPGM / RUN BY / DATE
Linux 2.4.21-27.ELsmp|Opteron|gcc -static|Linux x86_64|=+   COMMENT
  2021     9    24    9.313225746155D-10                    CORR TO SYSTEM TIME
                                                            END OF HEADER
17 21  9 25  4 15  0.0 4.613418132067D-04 2.728484105319D-12 1.440000000000D+04
   -1.555550000000D+04 1.515943527222D+00-2.793967723846D-09 0.000000000000D+00
    8.261498046875D+03-2.028866767883D+00 1.862645149231D-09 4.000000000000D+00
   -1.842162304688D+04-2.193510055542D+00 0.000000000000D+00 0.000000000000D+00
18 21  9 25  4 15  0.0 9.158533066511D-05 9.094947017729D-13 1.440000000000D+04
   -1.554837207031D+04 5.025529861450D-01-2.793967723846D-09 0.000000000000D+00
    1.986410839844D+04-3.102369308472D-01 1.862645149231D-09-3.000000000000D+00
   -3.916254882812D+03-3.552897453308D+00-0.000000000000D+00 0.000000000000D+00
19 21  9 25  4 15  0.0-1.606680452824D-04-9.094947017729D-13 1.440000000000D+04
   -8.482634277344D+03-7.643375396729D-01-1.862645149231D-09 0.000000000000D+00
    2.092864257812D+04 1.452134132385D+00 9.313225746155D-10 3.000000000000D+00
    1.184620849609D+04-3.113568305969D+00-1.862645149231D-09 0.000000000000D+00
16 21  9 25  4 15  0.0-2.200901508331D-05-0.000000000000D+00 1.551000000000D+04
    4.943981933594D+03-3.065202713013D+00-1.862645149231D-09 0.000000000000D+00
    1.109689062500D+04-1.247377395630D-01 0.000000000000D+00-1.000000000000D+00
   -2.246012060547D+04-7.248296737671D-01 1.862645149231D-09 0.000000000000D+00
 5 21  9 25  4 45  0.0 7.955078035593D-05 9.094947017729D-13 1.620000000000D+04
    5.342817871094D+03-9.867563247681D-01-9.313225746155D-10 0.000000000000D+00
    2.026827636719D+04-1.737001419067D+00-0.000000000000D+00 1.000000000000D+00
    1.456023095703D+04 2.778392791748D+00-1.862645149231D-09 0.000000000000D+00
19 21  9 25  4 45  0.0-1.606708392501D-04-9.094947017729D-13 1.620000000000D+04
   -9.291823730469D+03-1.576547622681D-01-2.793967723846D-09 0.000000000000D+00
    2.301406152344D+04 8.266115188599D-01 1.862645149231D-09 3.000000000000D+00
    5.855856445312D+03-3.499123573303D+00-9.313225746155D-10 0.000000000000D+00
 6 21  9 25  4 45  0.0-5.800276994705D-06-1.818989403546D-12 1.620000000000D+04
    1.630745605469D+04 4.806718826294D-01-9.313225746155D-10 0.000000000000D+00
    1.908810205078D+04 4.286069869995D-01-9.313225746155D-10-4.000000000000D+00
   -4.606734375000D+03 3.487038612366D+00 0.000000000000D+00 0.000000000000D+00
15 21  9 25  4 45  0.0 1.012533903122D-04-0.000000000000D+00 1.620000000000D+04
   -1.973063183594D+04-1.898340225220D+00-1.862645149231D-09 0.000000000000D+00
    8.158058593750D+03 2.622823715210D-01 2.793967723846D-09 0.000000000000D+00
   -1.393324853516D+04 2.835921287537D+00-0.000000000000D+00 0.000000000000D+00
16 21  9 25  4 45  0.0-2.200994640589D-05-0.000000000000D+00 1.620000000000D+04
   -6.611020507812D+02-3.111782073975D+00-1.862645149231D-09 0.000000000000D+00
    1.127153613281D+04 3.196773529053D-01 9.313225746155D-10-1.000000000000D+00
   -2.288199511719D+04 2.594804763794D-01 9.313225746155D-10 0.000000000000D+00
18 21  9 25  4 45  0.0 9.158812463284D-05 9.094947017729D-13 1.620000000000D+04
   -1.432258300781D+04 8.162755966187D-01-2.793967723846D-09 0.000000000000D+00
    1.856635107422D+04-1.138282775879D+00 1.862645149231D-09-3.000000000000D+00
   -1.007789990234D+04-3.248974800110D+00-0.000000000000D+00 0.000000000000D+00
 4 21  9 25  4 45  0.0 1.063821837306D-04 1.818989403546D-12 1.635000000000D+04
   -7.116191406250D+03-1.728225708008D+00-0.000000000000D+00 0.000000000000D+00
    8.674286621094D+03-2.615300178528D+00 0.000000000000D+00 6.000000000000D+00
    2.292954345703D+04 4.524240493774D-01-2.793967723846D-09 0.000000000000D+00
20 21  9 25  4 45  0.0-5.647446960211D-05-0.000000000000D+00 1.788000000000D+04
    3.307512207031D+03-1.273612976074D+00-0.000000000000D+00 0.000000000000D+00
    1.377715527344D+04 2.618003845215D+00-0.000000000000D+00 2.000000000000D+00
    2.122537597656D+04-1.498388290405D+00-1.862645149231D-09 0.000000000000D+00
20 21  9 25  5 15  0.0-5.647540092468D-05-0.000000000000D+00 1.800000000000D+04
    1.537859863281D+03-6.950969696045D-01-9.313225746155D-10 0.000000000000D+00
    1.828168505859D+04 2.336402893066D+00 0.000000000000D+00 2.000000000000D+00
    1.774385595703D+04-2.344851493835D+00-1.862645149231D-09 0.000000000000D+00
15 21  9 25  5 15  0.0 1.012524589896D-04-0.000000000000D+00 1.800000000000D+04
   -2.244265185547D+04-1.094976425171D+00-1.862645149231D-09 0.000000000000D+00
    8.764721679688D+03 3.731498718262D-01 2.793967723846D-09 0.000000000000D+00
   -8.355231933594D+03 3.321526527405D+00-0.000000000000D+00 0.000000000000D+00
 5 21  9 25  5 15  0.0 7.955171167850D-05 9.094947017729D-13 1.800000000000D+04
    2.987824707031D+03-1.629040718079D+00-9.313225746155D-10 0.000000000000D+00
    1.684589062500D+04-2.018277168274D+00 0.000000000000D+00 1.000000000000D+00
    1.893478369141D+04 2.050688743591D+00-1.862645149231D-09 0.000000000000D+00
 6 21  9 25  5 15  0.0-5.804002285004D-06-1.818989403546D-12 1.800000000000D+04
    1.671622070312D+04-5.983257293701D-02-1.862645149231D-09 0.000000000000D+00
    1.920328564453D+04-2.776098251343D-01-0.000000000000D+00-4.000000000000D+00
    1.766770019531D+03 3.548724174500D+00-0.000000000000D+00 0.000000000000D+00
16 21  9 25  5 15  0.0-2.201087772846D-05-0.000000000000D+00 1.800000000000D+04
   -6.077832519531D+03-2.858888626099D+00-1.862645149231D-09 0.000000000000D+00
    1.221895996094D+04 7.163934707642D-01 1.862645149231D-09-1.000000000000D+00
   -2.153670166016D+04 1.225961685181D+00 9.313225746155D-10 0.000000000000D+00
18 21  9 25  5 15  0.0 9.158998727798D-05 9.094947017729D-13 1.800000000000D+04
   -1.276969921875D+04 8.650560379028D-01-1.862645149231D-09 0.000000000000D+00
    1.577860986328D+04-1.945782661438D+00 2.793967723846D-09-3.000000000000D+00
   -1.546153759766D+04-2.693993568420D+00 0.000000000000D+00 0.000000000000D+00
19 21  9 25  5 15  0.0-1.606736332178D-04-9.094947017729D-13 1.800000000000D+04
   -9.159016113281D+03 2.688245773315D-01-2.793967723846D-09 0.000000000000D+00
    2.379180468750D+04 1.444911956787D-02 2.793967723846D-09 3.000000000000D+00
   -5.877290039062D+02-3.613875389099D+00-9.313225746155D-10 0.000000000000D+00
20 21  9 25  5 45  0.0-5.648005753756D-05-0.000000000000D+00 1.980000000000D+04
    7.629155273438D+02-1.864604949951D-01-1.862645149231D-09 0.000000000000D+00
    2.201648486328D+04 1.770124435425D+00 9.313225746155D-10 2.000000000000D+00
    1.289286621094D+04-3.010190010071D+00-1.862645149231D-09 0.000000000000D+00
15 21  9 25  5 45  0.0 1.012524589896D-04-0.000000000000D+00 1.980000000000D+04
   -2.363457812500D+04-2.285957336426D-01-9.313225746155D-10 0.000000000000D+00
    9.354797363281D+03 2.411918640137D-01 2.793967723846D-09 0.000000000000D+00
   -2.130538085938D+03 3.549834251404D+00-9.313225746155D-10 0.000000000000D+00
 6 21  9 25  5 45  0.0-5.807727575302D-06-1.818989403546D-12 1.980000000000D+04
    1.599579687500D+04-7.597446441650D-01-9.313225746155D-10 0.000000000000D+00
    1.819746679688D+04-8.036699295044D-01-0.000000000000D+00-4.000000000000D+00
    8.003810546875D+03 3.336350440979D+00-9.313225746155D-10 0.000000000000D+00
 5 21  9 25  5 45  0.0 7.955543696880D-05 9.094947017729D-13 1.980000000000D+04
   -4.845898437500D+02-2.209619522095D+00-0.000000000000D+00 0.000000000000D+00
    1.317346826172D+04-2.016129493713D+00 0.000000000000D+00 1.000000000000D+00
    2.184736425781D+04 1.164485931396D+00-2.793967723846D-09 0.000000000000D+00
16 21  9 25  5 45  0.0-2.201274037361D-05-9.094947017729D-13 1.980000000000D+04
   -1.079650927734D+04-2.346325874329D+00-1.862645149231D-09 0.000000000000D+00
    1.376259082031D+04 9.673385620117D-01 2.793967723846D-09-1.000000000000D+00
   -1.852433544922D+04 2.099658966064D+00 0.000000000000D+00 0.000000000000D+00
18 21  9 25  5 45  0.0 9.159278124571D-05 9.094947017729D-13 1.980000000000D+04
   -1.135753271484D+04 6.667222976685D-01-1.862645149231D-09 0.000000000000D+00
    1.164417480469D+04-2.616176605225D+00 2.793967723846D-09-3.000000000000D+00
   -1.965083203125D+04-1.930481910706D+00 0.000000000000D+00 0.000000000000D+00
19 21  9 25  5 45  0.0-1.606764271855D-04-9.094947017729D-13 1.980000000000D+04
   -8.469888183594D+03 4.537601470947D-01-1.862645149231D-09 0.000000000000D+00
    2.301684228516D+04-8.792543411255D-01 2.793967723846D-09 3.000000000000D+00
   -6.985832031250D+03-3.448922157288D+00-0.000000000000D+00 0.000000000000D+00
20 21  9 25  6 15  0.0-5.648098886013D-05-0.000000000000D+00 2.160000000000D+04
    7.656411132812D+02 1.549978256226D-01-1.862645149231D-09 0.000000000000D+00
    2.452189892578D+04 9.846315383911D-01 2.793967723846D-09 2.000000000000D+00
    7.046931640625D+03-3.443197250366D+00-9.313225746155D-10 0.000000000000D+00
15 21  9 25  6 15  0.0 1.012515276670D-04-0.000000000000D+00 2.160000000000D+04
   -2.329757421875D+04 5.848617553711D-01-0.000000000000D+00 0.000000000000D+00
    9.490473632812D+03-1.268529891968D-01 2.793967723846D-09 0.000000000000D+00
    4.258981933594D+03 3.503546714783D+00-9.313225746155D-10 0.000000000000D+00
 6 21  9 25  6 15  0.0-5.811452865601D-06-1.818989403546D-12 2.160000000000D+04
    1.394399658203D+04-1.521072387695D+00-9.313225746155D-10 0.000000000000D+00
    1.645563330078D+04-1.088568687439D+00 0.000000000000D+00-4.000000000000D+00
    1.362246533203D+04 2.866040229797D+00-9.313225746155D-10 0.000000000000D+00
16 21  9 25  6 15  0.0-2.201460301876D-05-9.094947017729D-13 2.160000000000D+04
   -1.441539160156D+04-1.652624130249D+00-9.313225746155D-10 0.000000000000D+00
    1.556895166016D+04 9.988536834717D-01 3.725290298462D-09-1.000000000000D+00
   -1.407488916016D+04 2.812162399292D+00-0.000000000000D+00 0.000000000000D+00
